CZ-3B R/B               
1 66176U 25242B   25301.93325123  .00036568  00000+0  72796-3 0  9991
2 66176  97.4517  13.9913 0105040  32.7474 328.0225 15.40950652   430
2025-242C               
1 66177U 25242C   25299.40367106  .00004293  00000+0  21434-3 0  9990
2 66177  97.6110  12.4552 0044551 134.5252 225.9635 15.17165482    38
GRAVITY-1 R/B           
1 66205U 25226E   25307.66399478  .00038357  27379-5  34216-3 0  9993
2 66205  97.7937  23.9325 0161243 314.0274  44.7784 15.53742855  1409
SHENZHOU-21 (SZ-21)     
1 66263U 25246A   25307.90407964  .00031822  00000+0  38006-3 0  9993
2 66263  41.4667 252.5607 0006419 318.2351  41.7998 15.60323166257941
CZ-2F R/B               
1 66264U 25246B   25307.88060596  .00992096  75791-5  64782-3 0  9991
2 66264  41.4651 251.4357 0096960 149.8032 210.8459 16.06270355   522
CMS-03 (GSAT-7R)        
1 66310U 25249A   25307.63300278  .00014449 -18191-6  37851-3 0  9990
2 66310  21.3168 160.0657 6686704 179.2209 182.9715  3.11808645    55
LVM-3 R/B               
1 66311U 25249B   25306.99298740  .00026741  14239-6  35583-3 0  9995
2 66311  21.3965 160.6225 6687805 178.2200 186.7171  3.12953676    33
