CCSDS_OMM_VERS = 2.0
CREATION_DATE  = 
ORIGINATOR     = 

OBJECT_NAME    = CZ-3B R/B
OBJECT_ID      = 2025-242B
CENTER_NAME    = EARTH
REF_FRAME      = TEME
TIME_SYSTEM    = UTC
MEAN_ELEMENT_THEORY = SGP/SGP4

EPOCH          = 2025-10-28T22:23:52.906272
MEAN_MOTION    = 15.40950652
ECCENTRICITY   = .010504
INCLINATION    = 97.4517
RA_OF_ASC_NODE = 13.9913
ARG_OF_PERICENTER = 32.7474
MEAN_ANOMALY   = 328.0225

EPHEMERIS_TYPE = 0
CLASSIFICATION_TYPE = U
NORAD_CAT_ID   = 66176
ELEMENT_SET_NO = 999
REV_AT_EPOCH   = 43
BSTAR          = .72796E-3
MEAN_MOTION_DOT = .36568E-3
MEAN_MOTION_DDOT = 0

CCSDS_OMM_VERS = 2.0
CREATION_DATE  = 
ORIGINATOR     = 

OBJECT_NAME    = 2025-242C
OBJECT_ID      = 2025-242C
CENTER_NAME    = EARTH
REF_FRAME      = TEME
TIME_SYSTEM    = UTC
MEAN_ELEMENT_THEORY = SGP/SGP4

EPOCH          = 2025-10-26T09:41:17.179584
MEAN_MOTION    = 15.17165482
ECCENTRICITY   = .0044551
INCLINATION    = 97.6110
RA_OF_ASC_NODE = 12.4552
ARG_OF_PERICENTER = 134.5252
MEAN_ANOMALY   = 225.9635

EPHEMERIS_TYPE = 0
CLASSIFICATION_TYPE = U
NORAD_CAT_ID   = 66177
ELEMENT_SET_NO = 999
REV_AT_EPOCH   = 3
BSTAR          = .21434E-3
MEAN_MOTION_DOT = .4293E-4
MEAN_MOTION_DDOT = 0

CCSDS_OMM_VERS = 2.0
CREATION_DATE  = 
ORIGINATOR     = 

OBJECT_NAME    = GRAVITY-1 R/B
OBJECT_ID      = 2025-226E
CENTER_NAME    = EARTH
REF_FRAME      = TEME
TIME_SYSTEM    = UTC
MEAN_ELEMENT_THEORY = SGP/SGP4

EPOCH          = 2025-11-03T15:56:09.148992
MEAN_MOTION    = 15.53742855
ECCENTRICITY   = .0161243
INCLINATION    = 97.7937
RA_OF_ASC_NODE = 23.9325
ARG_OF_PERICENTER = 314.0274
MEAN_ANOMALY   = 44.7784

EPHEMERIS_TYPE = 0
CLASSIFICATION_TYPE = U
NORAD_CAT_ID   = 66205
ELEMENT_SET_NO = 999
REV_AT_EPOCH   = 140
BSTAR          = .34215503E-3
MEAN_MOTION_DOT = .38357E-3
MEAN_MOTION_DDOT = .273794E-5

CCSDS_OMM_VERS = 2.0
CREATION_DATE  = 
ORIGINATOR     = 

OBJECT_NAME    = SHENZHOU-21 (SZ-21)
OBJECT_ID      = 2025-246A
CENTER_NAME    = EARTH
REF_FRAME      = TEME
TIME_SYSTEM    = UTC
MEAN_ELEMENT_THEORY = SGP/SGP4

EPOCH          = 2025-11-03T21:41:52.480896
MEAN_MOTION    = 15.60323166
ECCENTRICITY   = .00064197
INCLINATION    = 41.4667
RA_OF_ASC_NODE = 252.5607
ARG_OF_PERICENTER = 318.2351
MEAN_ANOMALY   = 41.7998

EPHEMERIS_TYPE = 0
CLASSIFICATION_TYPE = U
NORAD_CAT_ID   = 66263
ELEMENT_SET_NO = 999
REV_AT_EPOCH   = 25794
BSTAR          = .38006417E-3
MEAN_MOTION_DOT = .31822E-3
MEAN_MOTION_DDOT = 0

CCSDS_OMM_VERS = 2.0
CREATION_DATE  = 
ORIGINATOR     = 

OBJECT_NAME    = CZ-2F R/B
OBJECT_ID      = 2025-246B
CENTER_NAME    = EARTH
REF_FRAME      = TEME
TIME_SYSTEM    = UTC
MEAN_ELEMENT_THEORY = SGP/SGP4

EPOCH          = 2025-11-03T21:08:04.354944
MEAN_MOTION    = 16.06270355
ECCENTRICITY   = .00969608
INCLINATION    = 41.4651
RA_OF_ASC_NODE = 251.4357
ARG_OF_PERICENTER = 149.8032
MEAN_ANOMALY   = 210.8459

EPHEMERIS_TYPE = 0
CLASSIFICATION_TYPE = U
NORAD_CAT_ID   = 66264
ELEMENT_SET_NO = 999
REV_AT_EPOCH   = 52
BSTAR          = .64782416E-3
MEAN_MOTION_DOT = .992096E-2
MEAN_MOTION_DDOT = .7579052E-5

CCSDS_OMM_VERS = 2.0
CREATION_DATE  = 
ORIGINATOR     = 

OBJECT_NAME    = CMS-03 (GSAT-7R)
OBJECT_ID      = 2025-249A
CENTER_NAME    = EARTH
REF_FRAME      = TEME
TIME_SYSTEM    = UTC
MEAN_ELEMENT_THEORY = SGP/SGP4

EPOCH          = 2025-11-03T15:11:31.440192
MEAN_MOTION    = 3.11808645
ECCENTRICITY   = .66867044
INCLINATION    = 21.3168
RA_OF_ASC_NODE = 160.0657
ARG_OF_PERICENTER = 179.2209
MEAN_ANOMALY   = 182.9715

EPHEMERIS_TYPE = 0
CLASSIFICATION_TYPE = U
NORAD_CAT_ID   = 66310
ELEMENT_SET_NO = 999
REV_AT_EPOCH   = 5
BSTAR          = .37851344E-3
MEAN_MOTION_DOT = .14449E-3
MEAN_MOTION_DDOT = -.181908E-6

CCSDS_OMM_VERS = 2.0
CREATION_DATE  = 
ORIGINATOR     = 

OBJECT_NAME    = LVM-3 R/B
OBJECT_ID      = 2025-249B
CENTER_NAME    = EARTH
REF_FRAME      = TEME
TIME_SYSTEM    = UTC
MEAN_ELEMENT_THEORY = SGP/SGP4

EPOCH          = 2025-11-02T23:49:54.111360
MEAN_MOTION    = 3.12953676
ECCENTRICITY   = .66878056
INCLINATION    = 21.3965
RA_OF_ASC_NODE = 160.6225
ARG_OF_PERICENTER = 178.2200
MEAN_ANOMALY   = 186.7171

EPHEMERIS_TYPE = 0
CLASSIFICATION_TYPE = U
NORAD_CAT_ID   = 66311
ELEMENT_SET_NO = 999
REV_AT_EPOCH   = 3
BSTAR          = .35582965E-3
MEAN_MOTION_DOT = .26741E-3
MEAN_MOTION_DDOT = .142389E-6

